OBJECT_NAME,OBJECT_ID,EPOCH,MEAN_MOTION,ECCENTRICITY,INCLINATION,RA_OF_ASC_NODE,ARG_OF_PERICENTER,MEAN_ANOMALY,EPHEMERIS_TYPE,CLASSIFICATION_TYPE,NORAD_CAT_ID,ELEMENT_SET_NO,REV_AT_EPOCH,BSTAR,MEAN_MOTION_DOT,MEAN_MOTION_DDOT
STARLINK-37871,2026-135D,2026-07-19T01:00:23.435424,15.49200832,.00013599,97.2837,228.4566,96.6565,263.4841,0,U,69549,999,526,.60996051E-3,.33237E-3,0
STARLINK-37865,2026-135E,2026-07-19T00:53:10.736448,15.49205888,.00015396,97.2839,228.4642,88.6159,271.5269,0,U,69550,999,526,.45458217E-3,.24725E-3,0
STARLINK-37862,2026-135F,2026-07-19T07:54:59.414112,15.49208977,.00012703,97.2866,228.8324,86.6320,273.5076,0,U,69551,999,531,.36213398E-3,.19668E-3,0
STARLINK-37861,2026-135G,2026-07-19T02:11:56.781888,15.49194656,.00007371,97.2835,228.5436,128.8841,231.2476,0,U,69552,999,527,.31548605E-3,.17108E-3,0
STARLINK-37859,2026-135H,2026-07-19T02:01:51.532608,15.49198173,.00007508,97.2827,228.5513,72.0137,288.1196,0,U,69553,999,527,.49989055E-3,.27199E-3,0
STARLINK-37860,2026-135J,2026-07-19T01:38:47.410656,15.49206396,.00006859,97.2849,228.5761,166.5148,193.6122,0,U,69554,999,527,.42446295E-3,.23076E-3,0
STARLINK-37858,2026-135K,2026-07-19T01:47:00.791808,15.49216700,.00010056,97.2851,228.5672,96.8674,263.2691,0,U,69555,999,527,.42898115E-3,.23332E-3,0
STARLINK-37927,2026-135L,2026-07-19T00:42:43.622784,15.49219223,.00014812,97.2825,228.4742,99.6577,260.4842,0,U,69556,999,526,.58346916E-3,.31805E-3,0
STARLINK-37929,2026-135M,2026-07-19T01:07:46.977600,15.49201732,.00014143,97.2837,228.4507,99.9848,260.1563,0,U,69557,999,526,.46174204E-3,.25114E-3,0
STARLINK-37954,2026-135N,2026-07-19T01:06:00.867168,15.49201356,.00008677,97.2839,228.4526,111.6196,248.5148,0,U,69558,999,526,.50885177E-3,.27693E-3,0
STARLINK-37958,2026-135P,2026-07-19T01:04:29.476704,15.48563286,.00006973,97.2843,228.6071,351.8109,8.3130,0,U,69559,999,527,-.7775381E-2,-.393767E-2,0
STARLINK-37950,2026-135Q,2026-07-19T06:18:46.354464,15.47706418,.00026542,97.2840,228.7690,326.3180,33.7901,0,U,69560,999,530,-.22145841E-1,-.1040651E-1,0
STARLINK-37952,2026-135R,2026-07-19T00:35:50.207424,15.49207592,.0001718,97.2832,228.4814,97.4016,262.7430,0,U,69561,999,526,.42692259E-3,.23213E-3,0
STARLINK-37935,2026-135S,2026-07-19T01:03:31.958496,15.49211831,.0001452,97.2838,228.4541,94.7547,265.3870,0,U,69562,999,526,.63602078E-3,.34681E-3,0
STARLINK-37936,2026-135T,2026-07-19T00:43:23.365920,15.49206752,.00016614,97.2826,228.4734,99.0586,261.0853,0,U,69563,999,526,.50015158E-3,.27223E-3,0
STARLINK-37932,2026-135U,2026-07-19T01:16:35.499360,15.49207827,.00011723,97.2818,228.5958,93.0597,267.0789,0,U,69564,999,527,.43832098E-3,.23836E-3,0
STARLINK-37916,2026-135V,2026-07-19T07:53:30.078240,15.49205012,.00011687,97.2859,228.8340,82.1865,277.9519,0,U,69565,999,531,.2097552E-3,.1134E-3,0
STARLINK-37909,2026-135W,2026-07-19T02:10:35.006880,15.49206294,.0000757,97.2843,228.6998,80.6398,279.4939,0,U,69566,999,528,.24927556E-3,.13498E-3,0
STARLINK-37934,2026-135X,2026-07-19T01:40:43.554720,15.49206430,.00006892,97.2855,228.5752,107.7038,252.4289,0,U,69567,999,528,.36295029E-3,.1971E-3,0
STARLINK-37938,2026-135Y,2026-07-19T00:41:29.155488,15.49215083,.00015093,97.2835,228.4764,98.3728,261.7694,0,U,69568,999,526,.7128118E-3,.38905E-3,0
STARLINK-37924,2026-135Z,2026-07-19T01:17:07.133856,15.49204998,.00014229,97.2835,228.5964,104.0012,256.1398,0,U,69569,999,527,.46137116E-3,.25096E-3,0
STARLINK-37656,2026-143A,2026-07-19T02:12:28.461312,15.49204494,.00009123,97.2859,244.0136,100.9866,259.1488,0,U,69649,999,548,.25506332E-3,.13813E-3,0
STARLINK-37646,2026-143B,2026-07-17T09:41:10.843872,15.48770998,.0003494,97.2850,242.4838,139.4005,220.7507,0,U,69650,999,523,-.30305E-2,-.159329E-2,0
STARLINK-37749,2026-143C,2026-07-19T00:36:13.329792,15.49211916,.00012193,97.2843,244.1041,94.4380,265.7010,0,U,69651,999,548,.47074806E-3,.25616E-3,0
STARLINK-37819,2026-143D,2026-07-17T02:22:30.042048,15.49219289,.00016833,97.2815,242.1313,91.4316,268.7128,0,U,69652,999,518,.68551182E-3,.3741E-3,0
STARLINK-37729,2026-143E,2026-07-19T06:00:02.000160,15.67793452,.00012076,97.2852,244.8764,74.2323,287.8766,0,U,69653,999,561,-.25614693E-1,-.2457206E-1,0
STARLINK-37838,2026-143F,2026-07-19T06:00:02.000160,15.45909973,.000227,97.2850,244.3719,90.9316,178.8222,0,U,69654,999,561,-.74472358E-1,-.3173348E-1,0
STARLINK-37884,2026-143G,2026-07-19T06:00:02.000160,15.36975819,.00014295,97.2845,244.2672,93.1609,274.2812,0,U,69655,999,561,-.12668004E-2,-.45562E-3,0
STARLINK-37876,2026-143H,2026-07-19T06:00:02.000160,15.36995555,.00009582,97.2845,244.3413,88.3294,104.9599,0,U,69656,999,551,-.14374563E-2,-.51679E-3,0
STARLINK-37784,2026-143J,2026-07-19T02:27:10.562112,15.49221145,.00005717,97.2804,244.1503,60.5764,299.5544,0,U,69657,999,542,.53241783E-3,.29005E-3,0
