[ {"name": "STARLINK-37871", "line1": "1 69549U 26135D   26200.04193791  .00033237  00000+0  60996-3 0  9994", "line2": "2 69549  97.2837 228.4566 0001359  96.6565 263.4841 15.49200832  5264"}, {"name": "STARLINK-37865", "line1": "1 69550U 26135E   26200.03692982  .00024725  00000+0  45458-3 0  9999", "line2": "2 69550  97.2839 228.4642 0001539  88.6159 271.5269 15.49205888  5263"}, {"name": "STARLINK-37862", "line1": "1 69551U 26135F   26200.32985433  .00019668  00000+0  36213-3 0  9997", "line2": "2 69551  97.2866 228.8324 0001270  86.6320 273.5076 15.49208977  5311"}, {"name": "STARLINK-37861", "line1": "1 69552U 26135G   26200.09162942  .00017108  00000+0  31549-3 0  9998", "line2": "2 69552  97.2835 228.5436 0000737 128.8841 231.2476 15.49194656  5271"}, {"name": "STARLINK-37859", "line1": "1 69553U 26135H   26200.08462422  .00027199  00000+0  49989-3 0  9992", "line2": "2 69553  97.2827 228.5513 0000750  72.0137 288.1196 15.49198173  5270"}, {"name": "STARLINK-37860", "line1": "1 69554U 26135J   26200.06860429  .00023076  00000+0  42446-3 0  9991", "line2": "2 69554  97.2849 228.5761 0000685 166.5148 193.6122 15.49206396  5274"}, {"name": "STARLINK-37858", "line1": "1 69555U 26135K   26200.07431472  .00023332  00000+0  42898-3 0  9991", "line2": "2 69555  97.2851 228.5672 0001005  96.8674 263.2691 15.49216700  5270"}, {"name": "STARLINK-37927", "line1": "1 69556U 26135L   26200.02967156  .00031805  00000+0  58347-3 0  9990", "line2": "2 69556  97.2825 228.4742 0001481  99.6577 260.4842 15.49219223  5269"}, {"name": "STARLINK-37929", "line1": "1 69557U 26135M   26200.04707150  .00025114  00000+0  46174-3 0  9990", "line2": "2 69557  97.2837 228.4507 0001414  99.9848 260.1563 15.49201732  5265"}, {"name": "STARLINK-37954", "line1": "1 69558U 26135N   26200.04584337  .00027693  00000+0  50885-3 0  9999", "line2": "2 69558  97.2839 228.4526 0000867 111.6196 248.5148 15.49201356  5269"}, {"name": "STARLINK-37958", "line1": "1 69559U 26135P   26200.04478561 -.00393767  00000+0 -77754-2 0  9994", "line2": "2 69559  97.2843 228.6071 0000697 351.8109   8.3130 15.48563286  5271"}, {"name": "STARLINK-37950", "line1": "1 69560U 26135Q   26200.26303651 -.01040651  00000+0 -22146-1 0  9993", "line2": "2 69560  97.2840 228.7690 0002654 326.3180  33.7901 15.47706418  5306"}, {"name": "STARLINK-37952", "line1": "1 69561U 26135R   26200.02488666  .00023213  00000+0  42692-3 0  9990", "line2": "2 69561  97.2832 228.4814 0001718  97.4016 262.7430 15.49207592  5264"}, {"name": "STARLINK-37935", "line1": "1 69562U 26135S   26200.04411989  .00034681  00000+0  63602-3 0  9992", "line2": "2 69562  97.2838 228.4541 0001452  94.7547 265.3870 15.49211831  5260"}, {"name": "STARLINK-37936", "line1": "1 69563U 26135T   26200.03013155  .00027223  00000+0  50015-3 0  9993", "line2": "2 69563  97.2826 228.4734 0001661  99.0586 261.0853 15.49206752  5265"}, {"name": "STARLINK-37932", "line1": "1 69564U 26135U   26200.05318865  .00023836  00000+0  43832-3 0  9997", "line2": "2 69564  97.2818 228.5958 0001172  93.0597 267.0789 15.49207827  5278"}, {"name": "STARLINK-37916", "line1": "1 69565U 26135V   26200.32882035  .00011340  00000+0  20976-3 0  9994", "line2": "2 69565  97.2859 228.8340 0001168  82.1865 277.9519 15.49205012  5314"}, {"name": "STARLINK-37909", "line1": "1 69566U 26135W   26200.09068295  .00013498  00000+0  24928-3 0  9990", "line2": "2 69566  97.2843 228.6998 0000757  80.6398 279.4939 15.49206294  5284"}, {"name": "STARLINK-37934", "line1": "1 69567U 26135X   26200.06994855  .00019710  00000+0  36295-3 0  9991", "line2": "2 69567  97.2855 228.5752 0000689 107.7038 252.4289 15.49206430  5282"}, {"name": "STARLINK-37938", "line1": "1 69568U 26135Y   26200.02880967  .00038905  00000+0  71281-3 0  9997", "line2": "2 69568  97.2835 228.4764 0001509  98.3728 261.7694 15.49215083  5261"}, {"name": "STARLINK-37924", "line1": "1 69569U 26135Z   26200.05355479  .00025096  00000+0  46137-3 0  9995", "line2": "2 69569  97.2835 228.5964 0001422 104.0012 256.1398 15.49204998  5273"}, {"name": "STARLINK-37656", "line1": "1 69649U 26143A   26200.09199608  .00013813  00000+0  25506-3 0  9998", "line2": "2 69649  97.2859 244.0136 0000912 100.9866 259.1488 15.49204494  5484"}, {"name": "STARLINK-37646", "line1": "1 69650U 26143B   26198.40359773 -.00159329  00000+0 -30305-2 0  9999", "line2": "2 69650  97.2850 242.4838 0003494 139.4005 220.7507 15.48770998  5233"}, {"name": "STARLINK-37749", "line1": "1 69651U 26143C   26200.02515428  .00025616  00000+0  47075-3 0  9995", "line2": "2 69651  97.2843 244.1041 0001219  94.4380 265.7010 15.49211916  5486"}, {"name": "STARLINK-37819", "line1": "1 69652U 26143D   26198.09895882  .00037410  00000+0  68551-3 0  9991", "line2": "2 69652  97.2815 242.1313 0001683  91.4316 268.7128 15.49219289  5188"}, {"name": "STARLINK-37729", "line1": "1 69653U 26143E   26200.25002315 -.02457206  00000+0 -25615-1 0  9990", "line2": "2 69653  97.2852 244.8764 0001207  74.2323 287.8766 15.67793452  5615"}, {"name": "STARLINK-37838", "line1": "1 69654U 26143F   26200.25002315 -.03173348  00000+0 -74472-1 0  9999", "line2": "2 69654  97.2850 244.3719 0002270  90.9316 178.8222 15.45909973  5616"}, {"name": "STARLINK-37884", "line1": "1 69655U 26143G   26200.25002315 -.00045562  00000+0 -12668-2 0  9993", "line2": "2 69655  97.2845 244.2672 0001429  93.1609 274.2812 15.36975819  5611"}, {"name": "STARLINK-37876", "line1": "1 69656U 26143H   26200.25002315 -.00051679  00000+0 -14375-2 0  9997", "line2": "2 69656  97.2845 244.3413 0000958  88.3294 104.9599 15.36995555  5517"}, {"name": "STARLINK-37784", "line1": "1 69657U 26143J   26200.10220558  .00029005  00000+0  53242-3 0  9996", "line2": "2 69657  97.2804 244.1503 0000571  60.5764 299.5544 15.49221145  5428"}]